[{"OBJECT_NAME":"STARLINK-5654","OBJECT_ID":"2023-013AM","EPOCH":"2026-03-09T22:00:01.999584","MEAN_MOTION":15.11289657,"ECCENTRICITY":0.00012041,"INCLINATION":42.9998,"RA_OF_ASC_NODE":285.8425,"ARG_OF_PERICENTER":309.6832,"MEAN_ANOMALY":152.3677,"EPHEMERIS_TYPE":0,"CLASSIFICATION_TYPE":"U","NORAD_CAT_ID":55366,"ELEMENT_SET_NO":999,"REV_AT_EPOCH":567,"BSTAR":0.0043604859,"MEAN_MOTION_DOT":0.00075271,"MEAN_MOTION_DDOT":0},{"OBJECT_NAME":"FENGYUN 1C DEB","OBJECT_ID":"1999-025AMC","EPOCH":"2026-03-09T19:39:36.291456","MEAN_MOTION":15.06799557,"ECCENTRICITY":0.00299661,"INCLINATION":98.9468,"RA_OF_ASC_NODE":22.995,"ARG_OF_PERICENTER":242.9892,"MEAN_ANOMALY":116.8272,"EPHEMERIS_TYPE":0,"CLASSIFICATION_TYPE":"U","NORAD_CAT_ID":30597,"ELEMENT_SET_NO":999,"REV_AT_EPOCH":99841,"BSTAR":0.005730905,"MEAN_MOTION_DOT":0.00087128,"MEAN_MOTION_DDOT":0}]
